{
  "type": "FeatureCollection",
  "features": [
    {
      "type": "Feature",
      "properties": {
        "norad_id": 66441,
        "name": "STARLINK-35426",
        "group": "last-30-days",
        "lat": 40.12907505601121,
        "lon": -146.08487211243136,
        "alt_km": 409.877926698151,
        "timestamp": "2025-12-03T22:42:31.475405+00:00",
        "meta_object_name": "STARLINK-35426",
        "meta_object_id": "2025-259V",
        "meta_epoch": "2025-12-03T12:00:02.998944",
        "meta_mean_motion": 15.50667456,
        "meta_eccentricity": 0.0001485,
        "meta_inclination": 43.0002,
        "meta_ra_of_asc_node": 101.2935,
        "meta_arg_of_pericenter": 274.8165,
        "meta_mean_anomaly": 220.6681,
        "meta_ephemeris_type": 0,
        "meta_classification_type": "U",
        "meta_norad_cat_id": 66441,
        "meta_element_set_no": 999,
        "meta_rev_at_epoch": 479,
        "meta_bstar": -0.003119,
        "meta_mean_motion_dot": -0.00179748,
        "meta_mean_motion_ddot": 0,
        "tle_line1": "1 66441U 25259V   25337.50003471 -.00179748  00000+0 -31190-2 0  9997",
        "tle_line2": "2 66441  43.0002 101.2935 0001485 274.8165 220.6681 15.50667456  4794"
      },
      "geometry": {
        "type": "Point",
        "coordinates": [
          -146.08487211243136,
          40.12907505601121
        ]
      }
    },
    {
      "type": "Feature",
      "properties": {
        "norad_id": 66442,
        "name": "STARLINK-34724",
        "group": "last-30-days",
        "lat": 39.54936368770545,
        "lon": -143.71691676873704,
        "alt_km": 410.074259346743,
        "timestamp": "2025-12-03T22:42:31.475414+00:00",
        "meta_object_name": "STARLINK-34724",
        "meta_object_id": "2025-259W",
        "meta_epoch": "2025-12-03T12:00:02.998944",
        "meta_mean_motion": 15.50594706,
        "meta_eccentricity": 0.0001694,
        "meta_inclination": 43.0001,
        "meta_ra_of_asc_node": 101.2899,
        "meta_arg_of_pericenter": 278.9635,
        "meta_mean_anomaly": 218.4798,
        "meta_ephemeris_type": 0,
        "meta_classification_type": "U",
        "meta_norad_cat_id": 66442,
        "meta_element_set_no": 999,
        "meta_rev_at_epoch": 479,
        "meta_bstar": -0.0015454,
        "meta_mean_motion_dot": -0.00090022,
        "meta_mean_motion_ddot": 0,
        "tle_line1": "1 66442U 25259W   25337.50003471 -.00090022  00000+0 -15454-2 0  9990",
        "tle_line2": "2 66442  43.0001 101.2899 0001694 278.9635 218.4798 15.50594706  4793"
      },
      "geometry": {
        "type": "Point",
        "coordinates": [
          -143.71691676873704,
          39.54936368770545
        ]
      }
    },
    {
      "type": "Feature",
      "properties": {
        "norad_id": 66443,
        "name": "STARLINK-35219",
        "group": "last-30-days",
        "lat": 38.914404441456135,
        "lon": -141.36306806018345,
        "alt_km": 409.9150615034814,
        "timestamp": "2025-12-03T22:42:31.475423+00:00",
        "meta_object_name": "STARLINK-35219",
        "meta_object_id": "2025-259X",
        "meta_epoch": "2025-12-03T12:00:02.998944",
        "meta_mean_motion": 15.50566068,
        "meta_eccentricity": 0.0001574,
        "meta_inclination": 43.0001,
        "meta_ra_of_asc_node": 101.2849,
        "meta_arg_of_pericenter": 274.572,
        "meta_mean_anomaly": 224.789,
        "meta_ephemeris_type": 0,
        "meta_classification_type": "U",
        "meta_norad_cat_id": 66443,
        "meta_element_set_no": 999,
        "meta_rev_at_epoch": 468,
        "meta_bstar": -7.5803e-05,
        "meta_mean_motion_dot": -4.784e-05,
        "meta_mean_motion_ddot": 0,
        "tle_line1": "1 66443U 25259X   25337.50003471 -.00004784  00000+0 -75803-4 0  9997",
        "tle_line2": "2 66443  43.0001 101.2849 0001574 274.5720 224.7890 15.50566068  4684"
      },
      "geometry": {
        "type": "Point",
        "coordinates": [
          -141.36306806018345,
          38.914404441456135
        ]
      }
    },
    {
      "type": "Feature",
      "properties": {
        "norad_id": 66444,
        "name": "STARLINK-35360",
        "group": "last-30-days",
        "lat": 36.75880087934559,
        "lon": -134.6242133021231,
        "alt_km": 410.403069955677,
        "timestamp": "2025-12-03T22:42:31.475433+00:00",
        "meta_object_name": "STARLINK-35360",
        "meta_object_id": "2025-259Y",
        "meta_epoch": "2025-12-03T12:00:02.998944",
        "meta_mean_motion": 15.50678287,
        "meta_eccentricity": 0.0001504,
        "meta_inclination": 43.0002,
        "meta_ra_of_asc_node": 101.2693,
        "meta_arg_of_pericenter": 276.5622,
        "meta_mean_anomaly": 228.5051,
        "meta_ephemeris_type": 0,
        "meta_classification_type": "U",
        "meta_norad_cat_id": 66444,
        "meta_element_set_no": 999,
        "meta_rev_at_epoch": 479,
        "meta_bstar": -0.0034362,
        "meta_mean_motion_dot": -0.00197626,
        "meta_mean_motion_ddot": 0,
        "tle_line1": "1 66444U 25259Y   25337.50003471 -.00197626  00000+0 -34362-2 0  9999",
        "tle_line2": "2 66444  43.0002 101.2693 0001504 276.5622 228.5051 15.50678287  4799"
      },
      "geometry": {
        "type": "Point",
        "coordinates": [
          -134.6242133021231,
          36.75880087934559
        ]
      }
    },
    {
      "type": "Feature",
      "properties": {
        "norad_id": 66445,
        "name": "STARLINK-34698",
        "group": "last-30-days",
        "lat": 38.240936847571355,
        "lon": -139.07938368915507,
        "alt_km": 410.1491876246646,
        "timestamp": "2025-12-03T22:42:31.475443+00:00",
        "meta_object_name": "STARLINK-34698",
        "meta_object_id": "2025-259Z",
        "meta_epoch": "2025-12-03T12:00:02.998944",
        "meta_mean_motion": 15.50689014,
        "meta_eccentricity": 0.0001461,
        "meta_inclination": 43.0002,
        "meta_ra_of_asc_node": 101.2792,
        "meta_arg_of_pericenter": 272.4755,
        "meta_mean_anomaly": 228.7508,
        "meta_ephemeris_type": 0,
        "meta_classification_type": "U",
        "meta_norad_cat_id": 66445,
        "meta_element_set_no": 999,
        "meta_rev_at_epoch": 468,
        "meta_bstar": -0.0036921,
        "meta_mean_motion_dot": -0.00212012,
        "meta_mean_motion_ddot": 0,
        "tle_line1": "1 66445U 25259Z   25337.50003471 -.00212012  00000+0 -36921-2 0  9990",
        "tle_line2": "2 66445  43.0002 101.2792 0001461 272.4755 228.7508 15.50689014  4681"
      },
      "geometry": {
        "type": "Point",
        "coordinates": [
          -139.07938368915507,
          38.240936847571355
        ]
      }
    },
    {
      "type": "Feature",
      "properties": {
        "norad_id": 66446,
        "name": "STARLINK-34986",
        "group": "last-30-days",
        "lat": 37.52042952600391,
        "lon": -136.82841404881643,
        "alt_km": 410.20642826059157,
        "timestamp": "2025-12-03T22:42:31.475453+00:00",
        "meta_object_name": "STARLINK-34986",
        "meta_object_id": "2025-259AA",
        "meta_epoch": "2025-12-03T12:00:02.998944",
        "meta_mean_motion": 15.50674298,
        "meta_eccentricity": 0.0001429,
        "meta_inclination": 43.0002,
        "meta_ra_of_asc_node": 101.2741,
        "meta_arg_of_pericenter": 272.4795,
        "meta_mean_anomaly": 230.6716,
        "meta_ephemeris_type": 0,
        "meta_classification_type": "U",
        "meta_norad_cat_id": 66446,
        "meta_element_set_no": 999,
        "meta_rev_at_epoch": 479,
        "meta_bstar": -0.0032739,
        "meta_mean_motion_dot": -0.00188493,
        "meta_mean_motion_ddot": 0,
        "tle_line1": "1 66446U 25259AA  25337.50003471 -.00188493  00000+0 -32739-2 0  9999",
        "tle_line2": "2 66446  43.0002 101.2741 0001429 272.4795 230.6716 15.50674298  4797"
      },
      "geometry": {
        "type": "Point",
        "coordinates": [
          -136.82841404881643,
          37.52042952600391
        ]
      }
    },
    {
      "type": "Feature",
      "properties": {
        "norad_id": 66447,
        "name": "STARLINK-34851",
        "group": "last-30-days",
        "lat": 35.960229097989725,
        "lon": -132.47226812682743,
        "alt_km": 410.39474535312274,
        "timestamp": "2025-12-03T22:42:31.475463+00:00",
        "meta_object_name": "STARLINK-34851",
        "meta_object_id": "2025-259AB",
        "meta_epoch": "2025-12-03T12:00:02.998944",
        "meta_mean_motion": 15.50572461,
        "meta_eccentricity": 0.0001609,
        "meta_inclination": 43.0002,
        "meta_ra_of_asc_node": 101.2647,
        "meta_arg_of_pericenter": 270.98,
        "meta_mean_anomaly": 236.0497,
        "meta_ephemeris_type": 0,
        "meta_classification_type": "U",
        "meta_norad_cat_id": 66447,
        "meta_element_set_no": 999,
        "meta_rev_at_epoch": 468,
        "meta_bstar": -0.00060388,
        "meta_mean_motion_dot": -0.000356,
        "meta_mean_motion_ddot": 0,
        "tle_line1": "1 66447U 25259AB  25337.50003471 -.00035600  00000+0 -60388-3 0  9993",
        "tle_line2": "2 66447  43.0002 101.2647 0001609 270.9800 236.0497 15.50572461  4686"
      },
      "geometry": {
        "type": "Point",
        "coordinates": [
          -132.47226812682743,
          35.960229097989725
        ]
      }
    }
  ]
}